[{"OBJECT_NAME":"STARLINK-30489","OBJECT_ID":"2023-151L","EPOCH":"2026-03-09T01:55:19.776000","MEAN_MOTION":15.2671903,"ECCENTRICITY":0.00023706,"INCLINATION":43.0031,"RA_OF_ASC_NODE":339.3962,"ARG_OF_PERICENTER":252.2381,"MEAN_ANOMALY":107.8212,"EPHEMERIS_TYPE":0,"CLASSIFICATION_TYPE":"U","NORAD_CAT_ID":57974,"ELEMENT_SET_NO":999,"REV_AT_EPOCH":13567,"BSTAR":-4.4439226e-5,"MEAN_MOTION_DOT":-1.451e-5,"MEAN_MOTION_DDOT":0},{"OBJECT_NAME":"YAOGAN-43 01H","OBJECT_ID":"2024-148H","EPOCH":"2026-03-10T00:13:57.702432","MEAN_MOTION":15.25826805,"ECCENTRICITY":0.000635,"INCLINATION":34.994,"RA_OF_ASC_NODE":64.6147,"ARG_OF_PERICENTER":359.2394,"MEAN_ANOMALY":0.8311,"EPHEMERIS_TYPE":0,"CLASSIFICATION_TYPE":"U","NORAD_CAT_ID":60465,"ELEMENT_SET_NO":999,"REV_AT_EPOCH":8702,"BSTAR":0.00039232254,"MEAN_MOTION_DOT":0.00010268,"MEAN_MOTION_DDOT":0}]
